{
"type": "FeatureCollection",
"name": "gage_info",
"features": [
{ "type": "Feature", "properties": { "monitoring_location_id": "USGS-10342900", "agency_code": "USGS", "agency_name": "U.S. Geological Survey", "monitoring_location_number": "10342900", "monitoring_location_name": "INDEPENDENCE LK NR TRUCKEE CA", "district_code": "06", "country_code": "US", "country_name": "United States of America", "state_code": "06", "state_name": "California", "county_code": "091", "county_name": "Sierra County", "minor_civil_division_code": null, "site_type_code": "LK", "site_type": "Lake, Reservoir, Impoundment", "hydrologic_unit_code": "160501020102", "basin_code": null, "altitude": 2.04, "altitude_accuracy": 0.16, "altitude_method_code": "X", "altitude_method_name": "GNSS2 - Level 2 Quality Survey Grade Global Navigation Satellite System", "vertical_datum": "NAVD88", "vertical_datum_name": "North American Vertical Datum of 1988", "horizontal_positional_accuracy_code": "F", "horizontal_positional_accuracy": "Accurate to + or - 5 sec.", "horizontal_position_method_code": "M", "horizontal_position_method_name": "Interpolated from map", "original_horizontal_datum": "NAD27", "original_horizontal_datum_name": "North American Datum of 1927", "drainage_area": 7.51, "contributing_drainage_area": null, "time_zone_abbreviation": "PST", "uses_daylight_savings": "Y", "construction_date": null, "aquifer_code": null, "national_aquifer_code": null, "aquifer_type_code": null, "well_constructed_depth": null, "hole_constructed_depth": null, "depth_source_code": null, "revision_note": null, "revision_created": null, "revision_modified": null }, "geometry": { "type": "Point", "coordinates": [ -120.290734196178676, 39.451822762107163 ] } },
{ "type": "Feature", "properties": { "monitoring_location_id": "USGS-10343000", "agency_code": "USGS", "agency_name": "U.S. Geological Survey", "monitoring_location_number": "10343000", "monitoring_location_name": "INDEPENDENCE C NR TRUCKEE CA", "district_code": "06", "country_code": "US", "country_name": "United States of America", "state_code": "06", "state_name": "California", "county_code": "091", "county_name": "Sierra County", "minor_civil_division_code": null, "site_type_code": "ST", "site_type": "Stream", "hydrologic_unit_code": "160501020102", "basin_code": null, "altitude": 6924.56, "altitude_accuracy": 0.26, "altitude_method_code": "X", "altitude_method_name": "GNSS2 - Level 2 Quality Survey Grade Global Navigation Satellite System", "vertical_datum": "NAVD88", "vertical_datum_name": "North American Vertical Datum of 1988", "horizontal_positional_accuracy_code": "F", "horizontal_positional_accuracy": "Accurate to + or - 5 sec.", "horizontal_position_method_code": "M", "horizontal_position_method_name": "Interpolated from map", "original_horizontal_datum": "NAD27", "original_horizontal_datum_name": "North American Datum of 1927", "drainage_area": 8.1, "contributing_drainage_area": null, "time_zone_abbreviation": "PST", "uses_daylight_savings": "Y", "construction_date": null, "aquifer_code": null, "national_aquifer_code": null, "aquifer_type_code": null, "well_constructed_depth": null, "hole_constructed_depth": null, "depth_source_code": null, "revision_note": "WDR CA-79-3: Drainage area.", "revision_created": "2017-11-13T06:00:00+00:00", "revision_modified": null }, "geometry": { "type": "Point", "coordinates": [ -120.287123055850941, 39.456544940623886 ] } },
{ "type": "Feature", "properties": { "monitoring_location_id": "USGS-10343500", "agency_code": "USGS", "agency_name": "U.S. Geological Survey", "monitoring_location_number": "10343500", "monitoring_location_name": "SAGEHEN C NR TRUCKEE CA", "district_code": "06", "country_code": "US", "country_name": "United States of America", "state_code": "06", "state_name": "California", "county_code": "057", "county_name": "Nevada County", "minor_civil_division_code": null, "site_type_code": "ST", "site_type": "Stream", "hydrologic_unit_code": "160501020104", "basin_code": null, "altitude": 6329.71, "altitude_accuracy": 0.26, "altitude_method_code": "X", "altitude_method_name": "GNSS2 - Level 2 Quality Survey Grade Global Navigation Satellite System", "vertical_datum": "NAVD88", "vertical_datum_name": "North American Vertical Datum of 1988", "horizontal_positional_accuracy_code": "F", "horizontal_positional_accuracy": "Accurate to + or - 5 sec.", "horizontal_position_method_code": "M", "horizontal_position_method_name": "Interpolated from map", "original_horizontal_datum": "NAD27", "original_horizontal_datum_name": "North American Datum of 1927", "drainage_area": 10.5, "contributing_drainage_area": null, "time_zone_abbreviation": "PST", "uses_daylight_savings": "Y", "construction_date": null, "aquifer_code": null, "national_aquifer_code": null, "aquifer_type_code": null, "well_constructed_depth": null, "hole_constructed_depth": null, "depth_source_code": null, "revision_note": "WDR CA-79-3: Drainage area.", "revision_created": "2017-11-13T06:00:00+00:00", "revision_modified": null }, "geometry": { "type": "Point", "coordinates": [ -120.237954698864328, 39.431545766138186 ] } },
{ "type": "Feature", "properties": { "monitoring_location_id": "USGS-392501120182800", "agency_code": "USGS", "agency_name": "U.S. Geological Survey", "monitoring_location_number": "392501120182800", "monitoring_location_name": "SAGEHEN CR NR CARPENTER RIDGE CA", "district_code": "08", "country_code": "US", "country_name": "United States of America", "state_code": "06", "state_name": "California", "county_code": "091", "county_name": "Sierra County", "minor_civil_division_code": null, "site_type_code": "ST", "site_type": "Stream", "hydrologic_unit_code": "160501020104", "basin_code": null, "altitude": 8040.0, "altitude_accuracy": 20.0, "altitude_method_code": "M", "altitude_method_name": "Interpolated from topographic map.", "vertical_datum": "NGVD29", "vertical_datum_name": "National Geodetic Vertical Datum of 1929", "horizontal_positional_accuracy_code": "S", "horizontal_positional_accuracy": "Accurate to + or - 1 sec.", "horizontal_position_method_code": "M", "horizontal_position_method_name": "Interpolated from MAP.", "original_horizontal_datum": "NAD27", "original_horizontal_datum_name": "North American Datum of 1927", "drainage_area": null, "contributing_drainage_area": null, "time_zone_abbreviation": "PST", "uses_daylight_savings": "Y", "construction_date": null, "aquifer_code": null, "national_aquifer_code": null, "aquifer_type_code": null, "well_constructed_depth": null, "hole_constructed_depth": null, "depth_source_code": null, "revision_note": null, "revision_created": null, "revision_modified": null }, "geometry": { "type": "Point", "coordinates": [ -120.308814078706007, 39.416849384723797 ] } },
{ "type": "Feature", "properties": { "monitoring_location_id": "USGS-392553120142301", "agency_code": "USGS", "agency_name": "U.S. Geological Survey", "monitoring_location_number": "392553120142301", "monitoring_location_name": "NADP NTN CA50 A SAGEHEN CREEK NR TRUCKEE CA", "district_code": "06", "country_code": "US", "country_name": "United States of America", "state_code": "06", "state_name": "California", "county_code": "057", "county_name": "Nevada County", "minor_civil_division_code": "90710", "site_type_code": "AT", "site_type": "Atmosphere", "hydrologic_unit_code": "160501020104", "basin_code": null, "altitude": 6336.0, "altitude_accuracy": 1.6, "altitude_method_code": "N", "altitude_method_name": "Interpolated from Digital Elevation Model", "vertical_datum": "NAVD88", "vertical_datum_name": "North American Vertical Datum of 1988", "horizontal_positional_accuracy_code": "M", "horizontal_positional_accuracy": "Accurate to + or - 1 min.", "horizontal_position_method_code": "M", "horizontal_position_method_name": "Interpolated from map", "original_horizontal_datum": "NAD83", "original_horizontal_datum_name": "North American Datum of 1983", "drainage_area": null, "contributing_drainage_area": null, "time_zone_abbreviation": "PST", "uses_daylight_savings": "N", "construction_date": null, "aquifer_code": null, "national_aquifer_code": null, "aquifer_type_code": null, "well_constructed_depth": null, "hole_constructed_depth": null, "depth_source_code": null, "revision_note": null, "revision_created": null, "revision_modified": null }, "geometry": { "type": "Point", "coordinates": [ -120.2397, 39.4315 ] } },
{ "type": "Feature", "properties": { "monitoring_location_id": "USGS-392558120152000", "agency_code": "USGS", "agency_name": "U.S. Geological Survey", "monitoring_location_number": "392558120152000", "monitoring_location_name": "PRE-CAMPGROUND TRIB NR HOBART MILLS CA", "district_code": "08", "country_code": "US", "country_name": "United States of America", "state_code": "06", "state_name": "California", "county_code": "091", "county_name": "Sierra County", "minor_civil_division_code": null, "site_type_code": "ST", "site_type": "Stream", "hydrologic_unit_code": "160501020104", "basin_code": null, "altitude": 6420.0, "altitude_accuracy": 20.0, "altitude_method_code": "M", "altitude_method_name": "Interpolated from topographic map.", "vertical_datum": "NGVD29", "vertical_datum_name": "National Geodetic Vertical Datum of 1929", "horizontal_positional_accuracy_code": "S", "horizontal_positional_accuracy": "Accurate to + or - 1 sec.", "horizontal_position_method_code": "M", "horizontal_position_method_name": "Interpolated from MAP.", "original_horizontal_datum": "NAD27", "original_horizontal_datum_name": "North American Datum of 1927", "drainage_area": null, "contributing_drainage_area": null, "time_zone_abbreviation": "PST", "uses_daylight_savings": "Y", "construction_date": null, "aquifer_code": null, "national_aquifer_code": null, "aquifer_type_code": null, "well_constructed_depth": null, "hole_constructed_depth": null, "depth_source_code": null, "revision_note": null, "revision_created": null, "revision_modified": null }, "geometry": { "type": "Point", "coordinates": [ -120.256590761435007, 39.432683335800199 ] } },
{ "type": "Feature", "properties": { "monitoring_location_id": "USGS-392558120152100", "agency_code": "USGS", "agency_name": "U.S. Geological Survey", "monitoring_location_number": "392558120152100", "monitoring_location_name": "SAGEHEN CR AB CAMPGROUND NR HOBART MILLS CA", "district_code": "08", "country_code": "US", "country_name": "United States of America", "state_code": "06", "state_name": "California", "county_code": "091", "county_name": "Sierra County", "minor_civil_division_code": null, "site_type_code": "ST", "site_type": "Stream", "hydrologic_unit_code": "160501020104", "basin_code": null, "altitude": 6420.0, "altitude_accuracy": 20.0, "altitude_method_code": "M", "altitude_method_name": "Interpolated from topographic map.", "vertical_datum": "NGVD29", "vertical_datum_name": "National Geodetic Vertical Datum of 1929", "horizontal_positional_accuracy_code": "S", "horizontal_positional_accuracy": "Accurate to + or - 1 sec.", "horizontal_position_method_code": "M", "horizontal_position_method_name": "Interpolated from MAP.", "original_horizontal_datum": "NAD27", "original_horizontal_datum_name": "North American Datum of 1927", "drainage_area": null, "contributing_drainage_area": null, "time_zone_abbreviation": "PST", "uses_daylight_savings": "Y", "construction_date": null, "aquifer_code": null, "national_aquifer_code": null, "aquifer_type_code": null, "well_constructed_depth": null, "hole_constructed_depth": null, "depth_source_code": null, "revision_note": null, "revision_created": null, "revision_modified": null }, "geometry": { "type": "Point", "coordinates": [ -120.256868546993999, 39.432683332189903 ] } },
{ "type": "Feature", "properties": { "monitoring_location_id": "USGS-392602120164500", "agency_code": "USGS", "agency_name": "U.S. Geological Survey", "monitoring_location_number": "392602120164500", "monitoring_location_name": "SAGEHEN HILLS TRIB NR HOBART MILLS CA", "district_code": "08", "country_code": "US", "country_name": "United States of America", "state_code": "06", "state_name": "California", "county_code": "091", "county_name": "Sierra County", "minor_civil_division_code": null, "site_type_code": "ST", "site_type": "Stream", "hydrologic_unit_code": "160501020104", "basin_code": null, "altitude": 6740.0, "altitude_accuracy": 20.0, "altitude_method_code": "M", "altitude_method_name": "Interpolated from topographic map.", "vertical_datum": "NGVD29", "vertical_datum_name": "National Geodetic Vertical Datum of 1929", "horizontal_positional_accuracy_code": "S", "horizontal_positional_accuracy": "Accurate to + or - 1 sec.", "horizontal_position_method_code": "M", "horizontal_position_method_name": "Interpolated from MAP.", "original_horizontal_datum": "NAD27", "original_horizontal_datum_name": "North American Datum of 1927", "drainage_area": null, "contributing_drainage_area": null, "time_zone_abbreviation": "PST", "uses_daylight_savings": "Y", "construction_date": null, "aquifer_code": null, "national_aquifer_code": null, "aquifer_type_code": null, "well_constructed_depth": null, "hole_constructed_depth": null, "depth_source_code": null, "revision_note": null, "revision_created": null, "revision_modified": null }, "geometry": { "type": "Point", "coordinates": [ -120.280202559919005, 39.433794135974601 ] } },
{ "type": "Feature", "properties": { "monitoring_location_id": "USGS-392604120164900", "agency_code": "USGS", "agency_name": "U.S. Geological Survey", "monitoring_location_number": "392604120164900", "monitoring_location_name": "SAGEHEN CR BELOW LOGGED AREA NR HOBART MILLS CA", "district_code": "08", "country_code": "US", "country_name": "United States of America", "state_code": "06", "state_name": "California", "county_code": "091", "county_name": "Sierra County", "minor_civil_division_code": null, "site_type_code": "ST", "site_type": "Stream", "hydrologic_unit_code": "160501020104", "basin_code": null, "altitude": 6760.0, "altitude_accuracy": 20.0, "altitude_method_code": "M", "altitude_method_name": "Interpolated from topographic map.", "vertical_datum": "NGVD29", "vertical_datum_name": "National Geodetic Vertical Datum of 1929", "horizontal_positional_accuracy_code": "S", "horizontal_positional_accuracy": "Accurate to + or - 1 sec.", "horizontal_position_method_code": "M", "horizontal_position_method_name": "Interpolated from MAP.", "original_horizontal_datum": "NAD27", "original_horizontal_datum_name": "North American Datum of 1927", "drainage_area": null, "contributing_drainage_area": null, "time_zone_abbreviation": "PST", "uses_daylight_savings": "Y", "construction_date": null, "aquifer_code": null, "national_aquifer_code": null, "aquifer_type_code": null, "well_constructed_depth": null, "hole_constructed_depth": null, "depth_source_code": null, "revision_note": null, "revision_created": null, "revision_modified": null }, "geometry": { "type": "Point", "coordinates": [ -120.281313715148002, 39.434349675047301 ] } },
{ "type": "Feature", "properties": { "monitoring_location_id": "USGS-392724120171001", "agency_code": "USGS", "agency_name": "U.S. Geological Survey", "monitoring_location_number": "392724120171001", "monitoring_location_name": "INDEPENDENCE C PRECIP GAGE NR TRUCKEE CA", "district_code": "06", "country_code": "US", "country_name": "United States of America", "state_code": "06", "state_name": "California", "county_code": "091", "county_name": "Sierra County", "minor_civil_division_code": null, "site_type_code": "AT", "site_type": "Atmosphere", "hydrologic_unit_code": "160501020102", "basin_code": null, "altitude": 6920.0, "altitude_accuracy": 20.0, "altitude_method_code": "M", "altitude_method_name": "Interpolated from topographic map.", "vertical_datum": "NGVD29", "vertical_datum_name": "National Geodetic Vertical Datum of 1929", "horizontal_positional_accuracy_code": "S", "horizontal_positional_accuracy": "Accurate to + or - 1 sec.", "horizontal_position_method_code": "M", "horizontal_position_method_name": "Interpolated from MAP.", "original_horizontal_datum": "NAD27", "original_horizontal_datum_name": "North American Datum of 1927", "drainage_area": null, "contributing_drainage_area": null, "time_zone_abbreviation": "PST", "uses_daylight_savings": "Y", "construction_date": null, "aquifer_code": null, "national_aquifer_code": null, "aquifer_type_code": null, "well_constructed_depth": null, "hole_constructed_depth": null, "depth_source_code": null, "revision_note": null, "revision_created": null, "revision_modified": null }, "geometry": { "type": "Point", "coordinates": [ -120.287147731101996, 39.456571739159401 ] } }
]
}
